{"type": "FeatureCollection", "features": [ {"type": "Feature", "properties": {"norad_id": 31364, "name": "FENGYUN 1C DEB", "group": "fengyun-1c-debris", "lat": -43.60608951729922, "lon": -82.040531865616, "alt_km": 834.1173514799775, "timestamp": "2025-12-13T05:42:57.841720+00:00", "meta": {"OBJECT_NAME": "FENGYUN 1C DEB", "OBJECT_ID": "1999-025BRU", "EPOCH": "2025-12-11T13:37:29.667936", "MEAN_MOTION": 14.14634373, "ECCENTRICITY": 0.00942269, "INCLINATION": 99.262, "RA_OF_ASC_NODE": 105.1688, "ARG_OF_PERICENTER": 151.9386, "MEAN_ANOMALY": 208.6911, "EPHEMERIS_TYPE": 0, "CLASSIFICATION_TYPE": "U", "NORAD_CAT_ID": 31364, "ELEMENT_SET_NO": 999, "REV_AT_EPOCH": 94860, "BSTAR": 0.0051182807, "MEAN_MOTION_DOT": 0.00010236, "MEAN_MOTION_DDOT": 0}, "tle": {"line1": "1 31364U 99025BRU 25345.56770449  .00010236  00000+0  51183-2 0  9994", "line2": "2 31364  99.2620 105.1688 0094226 151.9386 208.6911 14.14634373948602"}}, "geometry": {"type": "Point", "coordinates": [-82.040531865616, -43.60608951729922]}}, {"type": "Feature", "properties": {"norad_id": 31365, "name": "FENGYUN 1C DEB", "group": "fengyun-1c-debris", "lat": -38.23622585851788, "lon": -114.61542936567245, "alt_km": 728.5871210259338, "timestamp": "2025-12-13T05:42:57.841731+00:00", "meta": {"OBJECT_NAME": "FENGYUN 1C DEB", "OBJECT_ID": "1999-025BRV", "EPOCH": "2025-12-11T04:24:13.386528", "MEAN_MOTION": 14.41809539, "ECCENTRICITY": 0.00423416, "INCLINATION": 98.6742, "RA_OF_ASC_NODE": 70.2066, "ARG_OF_PERICENTER": 224.351, "MEAN_ANOMALY": 135.4284, "EPHEMERIS_TYPE": 0, "CLASSIFICATION_TYPE": "U", "NORAD_CAT_ID": 31365, "ELEMENT_SET_NO": 999, "REV_AT_EPOCH": 96606, "BSTAR": 0.0033118759, "MEAN_MOTION_DOT": 0.00010909, "MEAN_MOTION_DDOT": 0}, "tle": {"line1": "1 31365U 99025BRV 25345.18348827  .00010909  00000+0  33119-2 0  9990", "line2": "2 31365  98.6742  70.2066 0042341 224.3510 135.4284 14.41809539966066"}}, "geometry": {"type": "Point", "coordinates": [-114.61542936567245, -38.23622585851788]}}, {"type": "Feature", "properties": {"norad_id": 31367, "name": "FENGYUN 1C DEB", "group": "fengyun-1c-debris", "lat": 47.3221094567122, "lon": 71.12975503945215, "alt_km": 761.148294921979, "timestamp": "2025-12-13T05:42:57.841744+00:00", "meta": {"OBJECT_NAME": "FENGYUN 1C DEB", "OBJECT_ID": "1999-025BRX", "EPOCH": "2025-12-12T04:55:19.530624", "MEAN_MOTION": 14.47485238, "ECCENTRICITY": 0.00995252, "INCLINATION": 98.7455, "RA_OF_ASC_NODE": 240.4518, "ARG_OF_PERICENTER": 18.0255, "MEAN_ANOMALY": 132.579, "EPHEMERIS_TYPE": 0, "CLASSIFICATION_TYPE": "U", "NORAD_CAT_ID": 31367, "ELEMENT_SET_NO": 999, "REV_AT_EPOCH": 98458, "BSTAR": 0.0010171926, "MEAN_MOTION_DOT": 3.927e-05, "MEAN_MOTION_DDOT": 0}, "tle": {"line1": "1 31367U 99025BRX 25346.20508716  .00003927  00000+0  10172-2 0  9997", "line2": "2 31367  98.7455 240.4518 0099525  18.0255 132.5790 14.47485238984582"}}, "geometry": {"type": "Point", "coordinates": [71.12975503945215, 47.3221094567122]}}, {"type": "Feature", "properties": {"norad_id": 31369, "name": "FENGYUN 1C DEB", "group": "fengyun-1c-debris", "lat": 48.845163123477285, "lon": 158.49428809326542, "alt_km": 861.3105931109758, "timestamp": "2025-12-13T05:42:57.841756+00:00", "meta": {"OBJECT_NAME": "FENGYUN 1C DEB", "OBJECT_ID": "1999-025BRZ", "EPOCH": "2025-12-11T04:19:15.253824", "MEAN_MOTION": 14.19407424, "ECCENTRICITY": 0.00545514, "INCLINATION": 98.6193, "RA_OF_ASC_NODE": 326.4983, "ARG_OF_PERICENTER": 304.0379, "MEAN_ANOMALY": 115.5695, "EPHEMERIS_TYPE": 0, "CLASSIFICATION_TYPE": "U", "NORAD_CAT_ID": 31369, "ELEMENT_SET_NO": 999, "REV_AT_EPOCH": 64305, "BSTAR": 0.00043400401, "MEAN_MOTION_DOT": 8.83e-06, "MEAN_MOTION_DDOT": 0}, "tle": {"line1": "1 31369U 99025BRZ 25345.18003766  .00000883  00000+0  43400-3 0  9999", "line2": "2 31369  98.6193 326.4983 0054551 304.0379 115.5695 14.19407424643057"}}, "geometry": {"type": "Point", "coordinates": [158.49428809326542, 48.845163123477285]}}, {"type": "Feature", "properties": {"norad_id": 31370, "name": "FENGYUN 1C DEB", "group": "fengyun-1c-debris", "lat": -65.63038179829388, "lon": 147.34987658084447, "alt_km": 851.5085711480306, "timestamp": "2025-12-13T05:42:57.841767+00:00", "meta": {"OBJECT_NAME": "FENGYUN 1C DEB", "OBJECT_ID": "1999-025BSA", "EPOCH": "2025-12-09T10:15:45.050400", "MEAN_MOTION": 14.0970042, "ECCENTRICITY": 0.00335624, "INCLINATION": 98.7542, "RA_OF_ASC_NODE": 343.5312, "ARG_OF_PERICENTER": 306.6769, "MEAN_ANOMALY": 53.1319, "EPHEMERIS_TYPE": 0, "CLASSIFICATION_TYPE": "U", "NORAD_CAT_ID": 31370, "ELEMENT_SET_NO": 999, "REV_AT_EPOCH": 96247, "BSTAR": 0.00064849325, "MEAN_MOTION_DOT": 1.1e-05, "MEAN_MOTION_DDOT": 0}, "tle": {"line1": "1 31370U 99025BSA 25343.42760475  .00001100  00000+0  64849-3 0  9996", "line2": "2 31370  98.7542 343.5312 0033562 306.6769  53.1319 14.09700420962475"}}, "geometry": {"type": "Point", "coordinates": [147.34987658084447, -65.63038179829388]}}, {"type": "Feature", "properties": {"norad_id": 31371, "name": "FENGYUN 1C DEB", "group": "fengyun-1c-debris", "lat": 39.758345762214645, "lon": -152.4121400915262, "alt_km": 889.9133032448599, "timestamp": "2025-12-13T05:42:57.841778+00:00", "meta": {"OBJECT_NAME": "FENGYUN 1C DEB", "OBJECT_ID": "1999-025BSB", "EPOCH": "2025-12-11T13:43:18.328224", "MEAN_MOTION": 14.04504261, "ECCENTRICITY": 0.00777282, "INCLINATION": 98.7667, "RA_OF_ASC_NODE": 18.6031, "ARG_OF_PERICENTER": 249.9267, "MEAN_ANOMALY": 109.3523, "EPHEMERIS_TYPE": 0, "CLASSIFICATION_TYPE": "U", "NORAD_CAT_ID": 31371, "ELEMENT_SET_NO": 999, "REV_AT_EPOCH": 95730, "BSTAR": 0.0010175497, "MEAN_MOTION_DOT": 1.625e-05, "MEAN_MOTION_DDOT": 0}, "tle": {"line1": "1 31371U 99025BSB 25345.57173991  .00001625  00000+0  10175-2 0  9990", "line2": "2 31371  98.7667  18.6031 0077728 249.9267 109.3523 14.04504261957303"}}, "geometry": {"type": "Point", "coordinates": [-152.4121400915262, 39.758345762214645]}}, {"type": "Feature", "properties": {"norad_id": 31372, "name": "FENGYUN 1C DEB", "group": "fengyun-1c-debris", "lat": -75.90572009976526, "lon": 19.45916966292141, "alt_km": 832.2294573821791, "timestamp": "2025-12-13T05:42:57.841788+00:00", "meta": {"OBJECT_NAME": "FENGYUN 1C DEB", "OBJECT_ID": "1999-025BSC", "EPOCH": "2025-12-12T04:50:20.035392", "MEAN_MOTION": 14.26530754, "ECCENTRICITY": 0.00338915, "INCLINATION": 99.3743, "RA_OF_ASC_NODE": 337.207, "ARG_OF_PERICENTER": 76.3876, "MEAN_ANOMALY": 284.1073, "EPHEMERIS_TYPE": 0, "CLASSIFICATION_TYPE": "U", "NORAD_CAT_ID": 31372, "ELEMENT_SET_NO": 999, "REV_AT_EPOCH": 95843, "BSTAR": 0.0024967459, "MEAN_MOTION_DOT": 6.011e-05, "MEAN_MOTION_DDOT": 0}, "tle": {"line1": "1 31372U 99025BSC 25346.20162078  .00006011  00000+0  24967-2 0  9994", "line2": "2 31372  99.3743 337.2070 0033891  76.3876 284.1073 14.26530754958437"}}, "geometry": {"type": "Point", "coordinates": [19.45916966292141, -75.90572009976526]}}, {"type": "Feature", "properties": {"norad_id": 31376, "name": "FENGYUN 1C DEB", "group": "fengyun-1c-debris", "lat": -64.09735874871626, "lon": 64.80786591909425, "alt_km": 662.652658019334, "timestamp": "2025-12-13T05:42:57.841799+00:00", "meta": {"OBJECT_NAME": "FENGYUN 1C DEB", "OBJECT_ID": "1999-025BSG", "EPOCH": "2025-12-11T04:56:55.150368", "MEAN_MOTION": 14.61649104, "ECCENTRICITY": 0.00491331, "INCLINATION": 98.8337, "RA_OF_ASC_NODE": 261.3153, "ARG_OF_PERICENTER": 273.9545, "MEAN_ANOMALY": 85.6038, "EPHEMERIS_TYPE": 0, "CLASSIFICATION_TYPE": "U", "NORAD_CAT_ID": 31376, "ELEMENT_SET_NO": 999, "REV_AT_EPOCH": 98120, "BSTAR": 0.0035183741, "MEAN_MOTION_DOT": 0.00017795, "MEAN_MOTION_DDOT": 0}, "tle": {"line1": "1 31376U 99025BSG 25345.20619387  .00017795  00000+0  35184-2 0  9991", "line2": "2 31376  98.8337 261.3153 0049133 273.9545  85.6038 14.61649104981202"}}, "geometry": {"type": "Point", "coordinates": [64.80786591909425, -64.09735874871626]}}, {"type": "Feature", "properties": {"norad_id": 31378, "name": "FENGYUN 1C DEB", "group": "fengyun-1c-debris", "lat": 75.95735211563999, "lon": -173.2257220554316, "alt_km": 1008.2707707410409, "timestamp": "2025-12-13T05:42:57.841811+00:00", "meta": {"OBJECT_NAME": "FENGYUN 1C DEB", "OBJECT_ID": "1999-025BSJ", "EPOCH": "2025-12-11T21:59:42.993312", "MEAN_MOTION": 13.80074441, "ECCENTRICITY": 0.0168447, "INCLINATION": 100.7553, "RA_OF_ASC_NODE": 234.7301, "ARG_OF_PERICENTER": 199.9707, "MEAN_ANOMALY": 159.4794, "EPHEMERIS_TYPE": 0, "CLASSIFICATION_TYPE": "U", "NORAD_CAT_ID": 31378, "ELEMENT_SET_NO": 999, "REV_AT_EPOCH": 94212, "BSTAR": 0.0009758, "MEAN_MOTION_DOT": 1.073e-05, "MEAN_MOTION_DDOT": 0}, "tle": {"line1": "1 31378U 99025BSJ 25345.91646983  .00001073  00000+0  97580-3 0  9994", "line2": "2 31378 100.7553 234.7301 0168447 199.9707 159.4794 13.80074441942126"}}, "geometry": {"type": "Point", "coordinates": [-173.2257220554316, 75.95735211563999]}}, {"type": "Feature", "properties": {"norad_id": 31381, "name": "FENGYUN 1C DEB", "group": "fengyun-1c-debris", "lat": 64.10638118578962, "lon": 52.709365217880965, "alt_km": 644.8159415452537, "timestamp": "2025-12-13T05:42:57.841823+00:00", "meta": {"OBJECT_NAME": "FENGYUN 1C DEB", "OBJECT_ID": "1999-025BSM", "EPOCH": "2025-12-11T11:38:53.452032", "MEAN_MOTION": 14.37039994, "ECCENTRICITY": 0.01985983, "INCLINATION": 98.4925, "RA_OF_ASC_NODE": 68.9047, "ARG_OF_PERICENTER": 35.7153, "MEAN_ANOMALY": 325.7133, "EPHEMERIS_TYPE": 0, "CLASSIFICATION_TYPE": "U", "NORAD_CAT_ID": 31381, "ELEMENT_SET_NO": 999, "REV_AT_EPOCH": 97382, "BSTAR": 0.00046825027, "MEAN_MOTION_DOT": 1.693e-05, "MEAN_MOTION_DDOT": 0}, "tle": {"line1": "1 31381U 99025BSM 25345.48534088  .00001693  00000+0  46825-3 0  9996", "line2": "2 31381  98.4925  68.9047 0198598  35.7153 325.7133 14.37039994973825"}}, "geometry": {"type": "Point", "coordinates": [52.709365217880965, 64.10638118578962]}}]}